     2.11           N: GPS NAV DATA                         RINEX VERSION / TYPE
teqc  2019Feb25                         20221121 12:24:52UTCPGM / RUN BY / DATE
OSX ker:10.11.6|Core i5|gcc 4.3 -m64|OSX ker:10.10+|=+      COMMENT
    4.6566D-09  1.4901D-08 -5.9605D-08 -1.1921D-07          ION ALPHA
    8.1920D+04  8.1920D+04 -6.5536D+04 -5.2429D+05          ION BETA
    9.313225746155D-10 4.440892098501D-15   147456     1539 DELTA-UTC: A0,A1,T,W
                                                            END OF HEADER
19 09  7  4 23 59 44.0 2.021063119173D-05-1.364242052659D-12 0.000000000000D+00
    3.000000000000D+01 9.437500000000D+00 5.100212444320D-09 2.029648303639D+00
    7.823109626770D-07 5.720461253077D-03 5.654990673065D-06 5.153615709305D+03
    6.047840000000D+05 1.322478055954D-07-1.999324580740D+00 1.266598701477D-07
    9.571583671337D-01 2.669687500000D+02-3.329420951175D-01-8.111052143593D-09
    7.000291590243D-11 1.000000000000D+00 1.538000000000D+03 0.000000000000D+00
    2.000000000000D+00 0.000000000000D+00-1.443549990654D-08 3.000000000000D+01
    5.976180000000D+05 4.000000000000D+00
11 09  7  4 23 59 44.0-9.280629456043D-06-1.591615728103D-12 0.000000000000D+00
    1.300000000000D+01-1.281250000000D+01 6.557415999840D-09-2.612667076299D-01
   -7.040798664093D-07 9.468073374592D-03 5.781650543213D-06 5.153680973053D+03
    6.047840000000D+05 1.676380634308D-08-1.241056787568D+00 1.098960638046D-07
    8.888696306108D-01 2.250625000000D+02 7.020411219621D-01-9.030018993680D-09
   -6.207401420328D-10 1.000000000000D+00 1.538000000000D+03 0.000000000000D+00
    2.000000000000D+00 0.000000000000D+00-1.164153218269D-08 1.300000000000D+01
    6.029220000000D+05 4.000000000000D+00
 3 09  7  4 23 59 44.0 4.156683571637D-04 5.229594535194D-12 0.000000000000D+00
    1.600000000000D+01 1.175000000000D+01 5.823456856067D-09 1.291859265752D+00
    7.431954145432D-07 1.202162553091D-02 6.522983312607D-06 5.153631387711D+03
    6.047840000000D+05-2.216547727585D-07-2.187546404751D+00 1.601874828339D-07
    9.262228753005D-01 2.399687500000D+02 9.105795792145D-01-8.610715813733D-09
    2.425101015191D-10 1.000000000000D+00 1.538000000000D+03 0.000000000000D+00
    2.000000000000D+00 0.000000000000D+00-4.190951585770D-09 1.600000000000D+01
    5.976480000000D+05 4.000000000000D+00
